{
  "type": "FeatureCollection",
  "features": [
    {
      "type": "Feature",
      "properties": {
        "norad_id": 29780,
        "name": "FENGYUN 1C DEB",
        "group": "fengyun-1c-debris",
        "lat": -27.276434813883853,
        "lon": 89.79717347181285,
        "alt_km": 831.7122557371504,
        "timestamp": "2025-12-19T08:58:49.609454+00:00",
        "meta_object_name": "FENGYUN 1C DEB",
        "meta_object_id": "1999-025BW",
        "meta_epoch": "2025-12-18T06:39:50.785632",
        "meta_mean_motion": 14.21077876,
        "meta_eccentricity": 0.00411349,
        "meta_inclination": 99.2784,
        "meta_ra_of_asc_node": 273.4814,
        "meta_arg_of_pericenter": 112.0101,
        "meta_mean_anomaly": 248.5452,
        "meta_ephemeris_type": 0,
        "meta_classification_type": "U",
        "meta_norad_cat_id": 29780,
        "meta_element_set_no": 999,
        "meta_rev_at_epoch": 97157,
        "meta_bstar": 0.0013811668,
        "meta_mean_motion_dot": 2.977e-05,
        "meta_mean_motion_ddot": 0,
        "tle_line1": "1 29780U 99025BW  25352.27767113  .00002977  00000+0  13812-2 0  9993",
        "tle_line2": "2 29780  99.2784 273.4814 0041134 112.0101 248.5452 14.21077876971577"
      },
      "geometry": {
        "type": "Point",
        "coordinates": [
          89.79717347181285,
          -27.276434813883853
        ]
      }
    },
    {
      "type": "Feature",
      "properties": {
        "norad_id": 29781,
        "name": "FENGYUN 1C DEB",
        "group": "fengyun-1c-debris",
        "lat": 39.573432786095765,
        "lon": 174.70424269776825,
        "alt_km": 821.9760870674463,
        "timestamp": "2025-12-19T08:58:49.609465+00:00",
        "meta_object_name": "FENGYUN 1C DEB",
        "meta_object_id": "1999-025BX",
        "meta_epoch": "2025-12-18T22:22:34.069728",
        "meta_mean_motion": 14.05241033,
        "meta_eccentricity": 0.00721347,
        "meta_inclination": 98.8097,
        "meta_ra_of_asc_node": 346.9111,
        "meta_arg_of_pericenter": 155.8316,
        "meta_mean_anomaly": 270.1476,
        "meta_ephemeris_type": 0,
        "meta_classification_type": "U",
        "meta_norad_cat_id": 29781,
        "meta_element_set_no": 999,
        "meta_rev_at_epoch": 96730,
        "meta_bstar": 0.00073143185,
        "meta_mean_motion_dot": 1.168e-05,
        "meta_mean_motion_ddot": 0,
        "tle_line1": "1 29781U 99025BX  25352.93233877  .00001168  00000+0  73143-3 0  9997",
        "tle_line2": "2 29781  98.8097 346.9111 0072134 155.8316 270.1476 14.05241033967306"
      },
      "geometry": {
        "type": "Point",
        "coordinates": [
          174.70424269776825,
          39.573432786095765
        ]
      }
    },
    {
      "type": "Feature",
      "properties": {
        "norad_id": 29782,
        "name": "FENGYUN 1C DEB",
        "group": "fengyun-1c-debris",
        "lat": -28.160338883217392,
        "lon": 51.98492047890892,
        "alt_km": 892.9459276356074,
        "timestamp": "2025-12-19T08:58:49.609475+00:00",
        "meta_object_name": "FENGYUN 1C DEB",
        "meta_object_id": "1999-025BY",
        "meta_epoch": "2025-12-18T18:24:01.329984",
        "meta_mean_motion": 14.11690543,
        "meta_eccentricity": 0.00556959,
        "meta_inclination": 99.1003,
        "meta_ra_of_asc_node": 46.447,
        "meta_arg_of_pericenter": 186.5208,
        "meta_mean_anomaly": 299.0025,
        "meta_ephemeris_type": 0,
        "meta_classification_type": "U",
        "meta_norad_cat_id": 29782,
        "meta_element_set_no": 999,
        "meta_rev_at_epoch": 96756,
        "meta_bstar": 0.0011010975,
        "meta_mean_motion_dot": 1.988e-05,
        "meta_mean_motion_ddot": 0,
        "tle_line1": "1 29782U 99025BY  25352.76668206  .00001988  00000+0  11011-2 0  9992",
        "tle_line2": "2 29782  99.1003  46.4470 0055695 186.5208 299.0025 14.11690543967561"
      },
      "geometry": {
        "type": "Point",
        "coordinates": [
          51.98492047890892,
          -28.160338883217392
        ]
      }
    },
    {
      "type": "Feature",
      "properties": {
        "norad_id": 29784,
        "name": "FENGYUN 1C DEB",
        "group": "fengyun-1c-debris",
        "lat": -34.05944673131789,
        "lon": 86.24733291918801,
        "alt_km": 776.6634588513589,
        "timestamp": "2025-12-19T08:58:49.609486+00:00",
        "meta_object_name": "FENGYUN 1C DEB",
        "meta_object_id": "1999-025CA",
        "meta_epoch": "2025-12-18T17:09:48.852000",
        "meta_mean_motion": 14.30599366,
        "meta_eccentricity": 0.00592276,
        "meta_inclination": 98.9462,
        "meta_ra_of_asc_node": 271.6826,
        "meta_arg_of_pericenter": 279.7557,
        "meta_mean_anomaly": 143.0596,
        "meta_ephemeris_type": 0,
        "meta_classification_type": "U",
        "meta_norad_cat_id": 29784,
        "meta_element_set_no": 999,
        "meta_rev_at_epoch": 98445,
        "meta_bstar": 0.00038130446,
        "meta_mean_motion_dot": 9.67e-06,
        "meta_mean_motion_ddot": 0,
        "tle_line1": "1 29784U 99025CA  25352.71514875  .00000967  00000+0  38130-3 0  9999",
        "tle_line2": "2 29784  98.9462 271.6826 0059227 279.7557 143.0596 14.30599366984453"
      },
      "geometry": {
        "type": "Point",
        "coordinates": [
          86.24733291918801,
          -34.05944673131789
        ]
      }
    },
    {
      "type": "Feature",
      "properties": {
        "norad_id": 29786,
        "name": "FENGYUN 1C DEB",
        "group": "fengyun-1c-debris",
        "lat": 1.9803357013346243,
        "lon": 10.084834188425795,
        "alt_km": 853.1850789423161,
        "timestamp": "2025-12-19T08:58:49.609496+00:00",
        "meta_object_name": "FENGYUN 1C DEB",
        "meta_object_id": "1999-025CC",
        "meta_epoch": "2025-12-18T14:50:15.834912",
        "meta_mean_motion": 14.09088508,
        "meta_eccentricity": 0.00768821,
        "meta_inclination": 98.7352,
        "meta_ra_of_asc_node": 9.6566,
        "meta_arg_of_pericenter": 286.2121,
        "meta_mean_anomaly": 202.4805,
        "meta_ephemeris_type": 0,
        "meta_classification_type": "U",
        "meta_norad_cat_id": 29786,
        "meta_element_set_no": 999,
        "meta_rev_at_epoch": 97243,
        "meta_bstar": 0.00010537428,
        "meta_mean_motion_dot": 1.44e-06,
        "meta_mean_motion_ddot": 0,
        "tle_line1": "1 29786U 99025CC  25352.61823883  .00000144  00000+0  10537-3 0  9990",
        "tle_line2": "2 29786  98.7352   9.6566 0076882 286.2121 202.4805 14.09088508972432"
      },
      "geometry": {
        "type": "Point",
        "coordinates": [
          10.084834188425795,
          1.9803357013346243
        ]
      }
    },
    {
      "type": "Feature",
      "properties": {
        "norad_id": 29788,
        "name": "FENGYUN 1C DEB",
        "group": "fengyun-1c-debris",
        "lat": -20.788417851185553,
        "lon": 68.3793272350147,
        "alt_km": 840.6437484328017,
        "timestamp": "2025-12-19T08:58:49.609507+00:00",
        "meta_object_name": "FENGYUN 1C DEB",
        "meta_object_id": "1999-025CE",
        "meta_epoch": "2025-12-18T18:27:22.113216",
        "meta_mean_motion": 14.26017023,
        "meta_eccentricity": 0.00431728,
        "meta_inclination": 98.7843,
        "meta_ra_of_asc_node": 64.4075,
        "meta_arg_of_pericenter": 172.3095,
        "meta_mean_anomaly": 301.6253,
        "meta_ephemeris_type": 0,
        "meta_classification_type": "U",
        "meta_norad_cat_id": 29788,
        "meta_element_set_no": 999,
        "meta_rev_at_epoch": 97441,
        "meta_bstar": 0.0012301045,
        "meta_mean_motion_dot": 2.921e-05,
        "meta_mean_motion_ddot": 0,
        "tle_line1": "1 29788U 99025CE  25352.76900594  .00002921  00000+0  12301-2 0  9998",
        "tle_line2": "2 29788  98.7843  64.4075 0043172 172.3095 301.6253 14.26017023974416"
      },
      "geometry": {
        "type": "Point",
        "coordinates": [
          68.3793272350147,
          -20.788417851185553
        ]
      }
    },
    {
      "type": "Feature",
      "properties": {
        "norad_id": 29789,
        "name": "FENGYUN 1C DEB",
        "group": "fengyun-1c-debris",
        "lat": -30.46679488753717,
        "lon": -9.73507682875426,
        "alt_km": 919.6177313335329,
        "timestamp": "2025-12-19T08:58:49.609517+00:00",
        "meta_object_name": "FENGYUN 1C DEB",
        "meta_object_id": "1999-025CF",
        "meta_epoch": "2025-12-18T06:13:56.091936",
        "meta_mean_motion": 13.54253439,
        "meta_eccentricity": 0.02983336,
        "meta_inclination": 99.4511,
        "meta_ra_of_asc_node": 174.8213,
        "meta_arg_of_pericenter": 264.8716,
        "meta_mean_anomaly": 277.8182,
        "meta_ephemeris_type": 0,
        "meta_classification_type": "U",
        "meta_norad_cat_id": 29789,
        "meta_element_set_no": 999,
        "meta_rev_at_epoch": 93062,
        "meta_bstar": 0.0011923009,
        "meta_mean_motion_dot": 1.033e-05,
        "meta_mean_motion_ddot": 0,
        "tle_line1": "1 29789U 99025CF  25352.25967699  .00001033  00000+0  11923-2 0  9994",
        "tle_line2": "2 29789  99.4511 174.8213 0298333 264.8716 277.8182 13.54253439930628"
      },
      "geometry": {
        "type": "Point",
        "coordinates": [
          -9.73507682875426,
          -30.46679488753717
        ]
      }
    }
  ]
}